{"format":"tle-catalog-v1","generatedAt":"2026-06-25T16:01:17.978Z","count":6895,"entries":[{"name":"CARTOSAT-2D","line1":"1 41948U 17008A   26176.25979579  .00003816  00000+0  18420-3 0  9992","line2":"2 41948  97.4105 235.4151 0004543 199.6706 160.4354 15.19259452518807"},{"name":"CARTOSAT-2E","line1":"1 42767U 17036C   26176.34330429  .00002698  00000+0  13133-3 0  9991","line2":"2 42767  97.4275 236.0115 0002186 281.4839  78.6150 15.19220759499383"},{"name":"CARTOSAT-2F","line1":"1 43111U 18004A   26176.24390674  .00005523  00000+0  26509-3 0  9999","line2":"2 43111  97.4786 235.8003 0001568 175.2441 184.8808 15.19271177468554"},{"name":"CORVUS BC1","line1":"1 42847U 17042Y   26175.96078811  .00002634  00000+0  18198-3 0  9994","line2":"2 42847  97.4100 337.8281 0013307  65.7846 294.4771 15.06505398488264"},{"name":"CORVUS BC2","line1":"1 42846U 17042X   26175.90061494  .00003067  00000+0  21210-3 0  9996","line2":"2 42846  97.4074 336.9510 0014782  86.7538 273.5381 15.06342159488222"},{"name":"CZ-4C R/B","line1":"1 43012U 17072C   26176.27189585  .00000492  00000+0  10560-3 0  9993","line2":"2 43012  98.5799 284.5362 0123411 126.7206 234.5403 14.58791073457816"},{"name":"D-SAT","line1":"1 42794U 17036AF  26176.21054334  .00007744  00000+0  36050-3 0  9995","line2":"2 42794  97.5557 155.1033 0083004 133.0685 227.7536 15.17124406492070"},{"name":"FENGYUN 3D","line1":"1 43010U 17072A   26176.25195569  .00000315  00000+0  17052-3 0  9995","line2":"2 43010  99.0128 150.8198 0002385  49.4928 310.6455 14.19742028446135"},{"name":"FLYING LAPTOP","line1":"1 42831U 17042G   26176.31763641  .00002947  00000+0  23325-3 0  9994","line2":"2 42831  97.4722 331.5390 0019949  95.8241 264.5258 15.01192342487678"},{"name":"IRIDIUM 113","line1":"1 42803U 17039A   26175.84512885  .00000021  00000+0  41573-6 0  9997","line2":"2 42803  86.3974 318.9770 0002173  90.2255 269.9190 14.34217766472287"},{"name":"IRIDIUM 116","line1":"1 43072U 17083C   26175.81975877  .00000224  00000+0  73038-4 0  9990","line2":"2 43072  86.3971 318.8096 0002121 101.5019 258.6415 14.34217940445267"},{"name":"IRIDIUM 130","line1":"1 43073U 17083D   26175.92758047  .00000001  00000+0 -68665-5 0  9996","line2":"2 43073  86.3975 319.0408 0001869  96.4630 263.6779 14.34216425445223"},{"name":"JILIN-1 03","line1":"1 41914U 17002B   26176.26912950  .00015156  00000+0  35984-3 0  9994","line2":"2 41914  97.1946 183.2399 0007586 131.6405 228.5494 15.41756212523107"},{"name":"JILIN-1 04","line1":"1 43022U 17074A   26176.25993333  .00016830  00000+0  38810-3 0  9999","line2":"2 43022  97.4860 286.0884 0004731 153.4979 206.6511 15.42637612475516"},{"name":"JILIN-1 05","line1":"1 43023U 17074B   26176.27545686  .00009367  00000+0  28715-3 0  9996","line2":"2 43023  97.4866 282.5393 0005087 184.1745 175.9456 15.33992103475241"},{"name":"JILIN-1 06","line1":"1 43024U 17074C   26176.31332173  .00007752  00000+0  23961-3 0  9991","line2":"2 43024  97.4793 279.5770 0006394 198.4582 161.6429 15.33781668475081"},{"name":"LEMUR-2-FURIAUS","line1":"1 42840U 17042R   26176.25400625  .00021305  00000+0  72330-3 0  9996","line2":"2 42840  97.3771 354.7798 0007617  43.2444 316.9393 15.30493444489449"},{"name":"LEMUR-2-GREENBERG","line1":"1 42837U 17042N   26176.25457678  .00020069  00000+0  65959-3 0  9997","line2":"2 42837  97.3821 356.8433 0007765 343.5584  16.5404 15.31554481489621"},{"name":"LKW-2","line1":"1 43080U 17084A   26176.28864999  .00008685  00000+0  33590-3 0  9991","line2":"2 43080  97.1195 215.7061 0002104 154.5315 205.6028 15.26436968472929"},{"name":"LKW-3","line1":"1 43146U 18006A   26176.26591602  .00008114  00000+0  23851-3 0  9991","line2":"2 43146  97.6614 337.1561 0001691 274.6085  85.4965 15.35388404469959"},{"name":"MAKERSAT 0","line1":"1 43016U 17073D   26175.42911744  .00015733  00000+0  42578-3 0  9992","line2":"2 43016  97.4622  58.0052 0104847 246.7219 112.2959 15.32301022467578"},{"name":"MOHAMMED VI-A","line1":"1 43005U 17070A   26176.34001375  .00000120  00000+0  24219-4 0  9996","line2":"2 43005  97.9556 248.5590 0001227  76.5980 283.5367 14.77076666465183"},{"name":"NOAA 20 (JPSS-1)","line1":"1 43013U 17073A   26176.24823677  .00000034  00000+0  37318-4 0  9992","line2":"2 43013  98.7772 115.6392 0000559 131.5924 228.5300 14.19513139445611"},{"name":"NORSAT 2","line1":"1 42828U 17042D   26176.04861609  .00010988  00000+0  48248-3 0  9998","line2":"2 42828  97.4041 349.3651 0009895  31.7934 328.3897 15.22061382488932"},{"name":"RADFXSAT (FOX-1B)","line1":"1 43017U 17073E   26176.14540636  .00007866  00000+0  34436-3 0  9993","line2":"2 43017  97.4699  43.1975 0148682 301.5265  57.1515 15.12819327466594"},{"name":"SUPERVIEW-1 03","line1":"1 43099U 18002A   26176.29126435  .00024070  00000+0  59006-3 0  9995","line2":"2 43099  97.3135 261.1168 0047476 150.7965 209.5951 15.39527197469617"},{"name":"TANSAT","line1":"1 41898U 16081A   26176.26714443  .00000331  00000+0  79379-4 0  9994","line2":"2 41898  98.5368 176.7638 0019214 285.9848  73.9234 14.59956794505805"},{"name":"TECHNOSAT","line1":"1 42829U 17042E   26176.16131605  .00003185  00000+0  22772-3 0  9993","line2":"2 42829  97.4295 333.5164 0019335  69.4707 290.8593 15.05006221487908"},{"name":"VRSS-2","line1":"1 42954U 17060A   26176.29361859  .00000452  00000+0  64364-4 0  9990","line2":"2 42954  97.6514 213.6554 0018673  74.5649 285.7625 14.81205312469656"},{"name":"WNISAT 1R","line1":"1 42835U 17042L   26176.22073842  .00002367  00000+0  18579-3 0  9996","line2":"2 42835  97.4834 332.0561 0011886 122.9423 237.2947 15.01792864487710"}]}