OBJECT_NAME,OBJECT_ID,EPOCH,MEAN_MOTION,ECCENTRICITY,INCLINATION,RA_OF_ASC_NODE,ARG_OF_PERICENTER,MEAN_ANOMALY,EPHEMERIS_TYPE,CLASSIFICATION_TYPE,NORAD_CAT_ID,ELEMENT_SET_NO,REV_AT_EPOCH,BSTAR,MEAN_MOTION_DOT,MEAN_MOTION_DDOT
TANSAT,2016-081A,2026-06-25T06:24:41.278752,14.59956794,.00192144,98.5368,176.7638,285.9848,73.9234,0,U,41898,999,50580,.79379437E-4,.331E-5,0
JILIN-1 03,2017-002B,2026-06-25T06:27:32.788800,15.41756212,.00075865,97.1946,183.2399,131.6405,228.5494,0,U,41914,999,52310,.35984408E-3,.15156E-3,0
CARTOSAT-2D,2017-008A,2026-06-25T06:14:06.356256,15.19259452,.00045435,97.4105,235.4151,199.6706,160.4354,0,U,41948,999,51880,.1842045E-3,.3816E-4,0
CARTOSAT-2E,2017-036C,2026-06-25T08:14:21.490656,15.19220759,.00021869,97.4275,236.0115,281.4839,78.6150,0,U,42767,999,49938,.13133019E-3,.2698E-4,0
D-SAT,2017-036AF,2026-06-25T05:03:10.944576,15.17124406,.00830045,97.5557,155.1033,133.0685,227.7536,0,U,42794,999,49207,.36049994E-3,.7744E-4,0
IRIDIUM 113,2017-039A,2026-06-24T20:16:59.132640,14.34217766,.00021736,86.3974,318.9770,90.2255,269.9190,0,U,42803,999,47228,.415731E-6,.21E-6,0
NORSAT 2,2017-042D,2026-06-25T01:10:00.430176,15.22061382,.00098956,97.4041,349.3651,31.7934,328.3897,0,U,42828,999,48893,.48247922E-3,.10988E-3,0
TECHNOSAT,2017-042E,2026-06-25T03:52:17.706720,15.05006221,.00193359,97.4295,333.5164,69.4707,290.8593,0,U,42829,999,48790,.22771798E-3,.3185E-4,0
FLYING LAPTOP,2017-042G,2026-06-25T07:37:23.785824,15.01192342,.0019949,97.4722,331.5390,95.8241,264.5258,0,U,42831,999,48767,.23325345E-3,.2947E-4,0
WNISAT 1R,2017-042L,2026-06-25T05:17:51.799488,15.01792864,.00118866,97.4834,332.0561,122.9423,237.2947,0,U,42835,999,48771,.18578777E-3,.2367E-4,0
LEMUR-2-GREENBERG,2017-042N,2026-06-25T06:06:35.433792,15.31554481,.00077655,97.3821,356.8433,343.5584,16.5404,0,U,42837,999,48962,.6595932E-3,.20069E-3,0
LEMUR-2-FURIAUS,2017-042R,2026-06-25T06:05:46.140000,15.30493444,.00076172,97.3771,354.7798,43.2444,316.9393,0,U,42840,999,48944,.72330441E-3,.21305E-3,0
CORVUS BC2,2017-042X,2026-06-24T21:36:53.130816,15.06342159,.00147821,97.4074,336.9510,86.7538,273.5381,0,U,42846,999,48822,.21210254E-3,.3067E-4,0
CORVUS BC1,2017-042Y,2026-06-24T23:03:32.092704,15.06505398,.00133077,97.4100,337.8281,65.7846,294.4771,0,U,42847,999,48826,.18198174E-3,.2634E-4,0
VRSS-2,2017-060A,2026-06-25T07:02:48.646176,14.81205312,.00186737,97.6514,213.6554,74.5649,285.7625,0,U,42954,999,46965,.64363774E-4,.452E-5,0
MOHAMMED VI-A,2017-070A,2026-06-25T08:09:37.188000,14.77076666,.00012277,97.9556,248.5590,76.5980,283.5367,0,U,43005,999,46518,.242193E-4,.12E-5,0
FENGYUN 3D,2017-072A,2026-06-25T06:02:48.971616,14.19742028,.00023856,99.0128,150.8198,49.4928,310.6455,0,U,43010,999,44613,.17051614E-3,.315E-5,0
CZ-4C R/B,2017-072C,2026-06-25T06:31:31.801440,14.58791073,.01234115,98.5799,284.5362,126.7206,234.5403,0,U,43012,999,45781,.10559561E-3,.492E-5,0
NOAA 20 (JPSS-1),2017-073A,2026-06-25T05:57:27.656928,14.19513139,.00005593,98.7772,115.6392,131.5924,228.5300,0,U,43013,999,44561,.37318475E-4,.34E-6,0
MAKERSAT 0,2017-073D,2026-06-24T10:17:55.746816,15.32301022,.01048473,97.4622,58.0052,246.7219,112.2959,0,U,43016,999,46757,.42577588E-3,.15733E-3,0
RADFXSAT (FOX-1B),2017-073E,2026-06-25T03:29:23.109504,15.12819327,.01486828,97.4699,43.1975,301.5265,57.1515,0,U,43017,999,46659,.34436319E-3,.7866E-4,0
JILIN-1 04,2017-074A,2026-06-25T06:14:18.239712,15.42637612,.0004731,97.4860,286.0884,153.4979,206.6511,0,U,43022,999,47551,.38810487E-3,.1683E-3,0
JILIN-1 05,2017-074B,2026-06-25T06:36:39.472704,15.33992103,.00050874,97.4866,282.5393,184.1745,175.9456,0,U,43023,999,47524,.28715386E-3,.9367E-4,0
JILIN-1 06,2017-074C,2026-06-25T07:31:10.997472,15.33781668,.00063949,97.4793,279.5770,198.4582,161.6429,0,U,43024,999,47508,.23961436E-3,.7752E-4,0
IRIDIUM 116,2017-083C,2026-06-24T19:40:27.157728,14.34217940,.00021212,86.3971,318.8096,101.5019,258.6415,0,U,43072,999,44526,.73038385E-4,.224E-5,0
IRIDIUM 130,2017-083D,2026-06-24T22:15:42.952608,14.34216425,.00018696,86.3975,319.0408,96.4630,263.6779,0,U,43073,999,44522,-.6866511E-5,.1E-7,0
LKW-2,2017-084A,2026-06-25T06:55:39.359136,15.26436968,.00021042,97.1195,215.7061,154.5315,205.6028,0,U,43080,999,47292,.3358984E-3,.8685E-4,0
SUPERVIEW-1 03,2018-002A,2026-06-25T06:59:25.239840,15.39527197,.00474767,97.3135,261.1168,150.7965,209.5951,0,U,43099,999,46961,.59006152E-3,.2407E-3,0
CARTOSAT-2F,2018-004A,2026-06-25T05:51:13.542336,15.19271177,.00015687,97.4786,235.8003,175.2441,184.8808,0,U,43111,999,46855,.26509135E-3,.5523E-4,0
LKW-3,2018-006A,2026-06-25T06:22:55.144128,15.35388404,.00016911,97.6614,337.1561,274.6085,85.4965,0,U,43146,999,46995,.23850953E-3,.8114E-4,0
